[{"OBJECT_NAME":"STARLINK-32667","OBJECT_ID":"2024-229K","EPOCH":"2026-03-09T22:29:45.198816","MEAN_MOTION":15.275991,"ECCENTRICITY":0.00027065,"INCLINATION":43.0058,"RA_OF_ASC_NODE":268.938,"ARG_OF_PERICENTER":255.6074,"MEAN_ANOMALY":104.4478,"EPHEMERIS_TYPE":0,"CLASSIFICATION_TYPE":"U","NORAD_CAT_ID":62201,"ELEMENT_SET_NO":999,"REV_AT_EPOCH":7060,"BSTAR":0.0013549994,"MEAN_MOTION_DOT":0.00037237,"MEAN_MOTION_DDOT":0},{"OBJECT_NAME":"OBJECT C","OBJECT_ID":"2025-234C","EPOCH":"2026-03-09T22:07:06.538080","MEAN_MOTION":15.23160401,"ECCENTRICITY":0.00161414,"INCLINATION":97.4354,"RA_OF_ASC_NODE":138.2572,"ARG_OF_PERICENTER":142.8194,"MEAN_ANOMALY":217.4163,"EPHEMERIS_TYPE":0,"CLASSIFICATION_TYPE":"U","NORAD_CAT_ID":66055,"ELEMENT_SET_NO":999,"REV_AT_EPOCH":2157,"BSTAR":0.00030176965,"MEAN_MOTION_DOT":7.085e-5,"MEAN_MOTION_DDOT":0}]
